sat_config_name,tle_name,norad_id,horizons_id,epoch_tle,t_obs,delta_t_min,incl_deg,raan_deg,ecc,argp_deg,M_deg,mean_motion_rev_per_day,x_sgp4,y_sgp4,z_sgp4,vx_sgp4,vy_sgp4,vz_sgp4,x_true,y_true,z_true,vx_true,vy_true,vz_true,err_x,err_y,err_z,err_vx,err_vy,err_vz,err_norm,horizons_ok,line1,line2
CHANDRA,CXO,25867,-151,2025-11-29T09:28:09.054336+00:00,2025-11-30T02:18:09.054336+00:00,1010.0,52.7584,123.0489,0.8164697,310.7158,0.2585,0.37803381,-29765.041524567405,-80345.35253465993,90154.88198578809,0.3683324485203232,-1.09691555380181,0.3704367994257756,-29757.68140477665,-80338.4349303229,90149.03567256349,0.36769438080440786,-1.0974130601763437,0.3711303103215179,-7.3601197907555616,-6.917604337038938,5.846313224596088,0.0006380677159153469,0.0004975063745336072,-0.0006935108957422664,11.670646572413146,True,1 25867U 99040B   25333.39454924  .00000722  00000+0  00000+0 0  9995,2 25867  52.7584 123.0489 8164697 310.7158   0.2585  0.37803381 16565
CHANDRA,CXO,25867,-151,2025-11-29T09:28:09.054336+00:00,2025-11-30T02:23:09.054336+00:00,1015.0,52.7584,123.0489,0.8164697,310.7158,0.2585,0.37803381,-29654.314716721445,-80673.76637674477,90265.29905823318,0.37017202495957247,-1.0919255222739093,0.3648446599108668,-29647.096953784763,-80666.91007192573,90259.53500912574,0.36953222641617794,-1.0924232857703606,0.3655368081460217,-7.217762936681538,-6.856304819040815,5.764049107441679,0.0006397985433945208,0.0004977634964513644,-0.0006921482351548991,11.503446426820757,True,1 25867U 99040B   25333.39454924  .00000722  00000+0  00000+0 0  9995,2 25867  52.7584 123.0489 8164697 310.7158   0.2585  0.37803381 16565
CHANDRA,CXO,25867,-151,2025-11-29T09:28:09.054336+00:00,2025-11-30T02:28:09.054336+00:00,1020.0,52.7584,123.0489,0.8164697,310.7158,0.2585,0.37803381,-29543.038950120714,-81000.68437919572,90374.04185198087,0.3719930599867208,-1.0869470481576595,0.35928132405312746,-29535.963921597802,-80993.89006211344,90368.36063934724,0.3713515287263162,-1.0874450688540083,0.3599721108356385,-7.0750285229114525,-6.794317082283669,5.681212633629912,0.0006415312604045598,0.0004980206963487444,-0.0006907867825110547,11.335561309575207,True,1 25867U 99040B   25333.39454924  .00000722  00000+0  00000+0 0  9995,2 25867  52.7584 123.0489 8164697 310.7158   0.2585  0.37803381 16565
CHANDRA,CXO,25867,-151,2025-11-29T09:28:09.054336+00:00,2025-11-30T02:33:09.054336+00:00,1025.0,52.7584,123.0489,0.8164697,310.7158,0.2585,0.37803381,-29431.21975420929,-81326.10999178718,90481.11895813329,0.37379578456878004,-1.0819799941716672,0.3537464379016865,-29424.287866305152,-81319.37826009447,90475.52112250568,0.3731525182184001,-1.0824782735303438,0.3544358658890089,-6.931887904138421,-6.731731692707399,5.5978356276027625,0.000643266350379923,0.0004982793586765233,-0.0006894279873224107,11.167051769012293,True,1 25867U 99040B   25333.39454924  .00000722  00000+0  00000+0 0  9995,2 25867  52.7584 123.0489 8164697 310.7158   0.2585  0.37803381 16565
CHANDRA,CXO,25867,-151,2025-11-29T09:28:09.054336+00:00,2025-11-30T02:38:09.054336+00:00,1030.0,52.7584,123.0489,0.8164697,310.7158,0.2585,0.37803381,-29318.862589770608,-81650.04662326106,90586.53886241633,0.3755804253520284,-1.0770242243244015,0.3482396532188079,-29312.074232654246,-81643.37811582458,90581.02495645772,0.3749354217894498,-1.0775227631875897,0.3489277242781211,-6.788357116362022,-6.668507436479558,5.513905958607211,0.0006450035625786277,0.0004985388631881804,-0.0006880710593131778,10.997906286653391,True,1 25867U 99040B   25333.39454924  .00000722  00000+0  00000+0 0  9995,2 25867  52.7584 123.0489 8164697 310.7158   0.2585  0.37803381 16565
CHANDRA,CXO,25867,-151,2025-11-29T09:28:09.054336+00:00,2025-11-30T02:43:09.054336+00:00,1035.0,52.7584,123.0489,0.8164697,310.7158,0.2585,0.37803381,-29205.972850196267,-81972.49764171717,90690.30994687621,0.3773472047604318,-1.0720796038965656,0.34276062735834883,-29199.328397878115,-81965.89303748553,90684.88053440533,0.37670046210283126,-1.0725784024981526,0.34344734259025517,-6.6444523181526165,-6.604604231644771,5.429412470883108,0.000646742657600563,0.0004987986015869694,-0.0006867152319063319,10.828114491629867,True,1 25867U 99040B   25333.39454924  .00000722  00000+0  00000+0 0  9995,2 25867  52.7584 123.0489 8164697 310.7158   0.2585  0.37803381 16565
CHANDRA,CXO,25867,-151,2025-11-29T09:28:09.054336+00:00,2025-11-30T02:48:09.054336+00:00,1040.0,52.7584,123.0489,0.8164697,310.7158,0.2585,0.37803381,-29092.55586274559,-82293.46637498972,90792.4404915402,0.3790963410910601,-1.067145999423704,0.33730902314736755,-29086.05571838137,-82286.92626372873,90787.09610600644,0.37844785698857425,-1.0676450593724782,0.3379943850850669,-6.500144364221342,-6.5401112609833945,5.344385533753666,0.0006484841024858579,0.0004990599487741942,-0.000685361937699358,10.657738446554022,True,1 25867U 99040B   25333.39454924  .00000722  00000+0  00000+0 0  9995,2 25867  52.7584 123.0489 8164697 310.7158   0.2585  0.37803381 16565
CHANDRA,CXO,25867,-151,2025-11-29T09:28:09.054336+00:00,2025-11-30T02:53:09.054336+00:00,1045.0,52.7584,123.0489,0.8164697,310.7158,0.2585,0.37803381,-28978.616889762994,-82612.95611102454,90892.93867604123,0.38082804860705505,-1.0622232786788994,0.33188450877074616,-28972.261425077962,-82606.48116593811,90887.67987582316,0.38017782118517734,-1.0627226003098997,0.3325685184501046,-6.35546468503162,-6.474945086432854,5.258800218070974,0.0006502274218777027,0.0004993216310003046,-0.0006840096793584438,10.486745203760238,True,1 25867U 99040B   25333.39454924  .00000722  00000+0  00000+0 0  9995,2 25867  52.7584 123.0489 8164697 310.7158   0.2585  0.37803381 16565
CHANDRA,CXO,25867,-151,2025-11-29T09:28:09.054336+00:00,2025-11-30T02:58:09.054336+00:00,1050.0,52.7584,123.0489,0.8164697,310.7158,0.2585,0.37803381,-28864.161129880864,-82930.97009824605,90991.81258121002,0.3825425376278725,-1.0573113106556649,0.32648675765877655,-28857.950746125633,-82924.56090412704,90986.63989522947,0.38189056455498027,-1.0578108956748968,0.32716941753936285,-6.210383755231305,-6.409194119012682,5.172685980549431,0.0006519730728922202,0.000499585019231974,-0.0006826598805863004,10.315198296484672,True,1 25867U 99040B   25333.39454924  .00000722  00000+0  00000+0 0  9995,2 25867  52.7584 123.0489 8164697 310.7158   0.2585  0.37803381 16565
CHANDRA,CXO,25867,-151,2025-11-29T09:28:09.054336+00:00,2025-11-30T03:03:09.054336+00:00,1055.0,52.7584,123.0489,0.8164697,310.7158,0.2585,0.37803381,-28749.19371919566,-83247.5115459196,91089.07019063241,0.3842400146170473,-1.0524099655510006,0.321115448377579,-28743.128805142263,-83241.16871764275,91083.9841558442,0.3835862937483862,-1.0529098152126057,0.3217967603322393,-6.064914053396933,-6.3428282768436475,5.086034788211691,0.0006537208686611118,0.0004998496616051007,-0.000681311954660313,10.143096316782096,True,1 25867U 99040B   25333.39454924  .00000722  00000+0  00000+0 0  9995,2 25867  52.7584 123.0489 8164697 310.7158   0.2585  0.37803381 16565
CHANDRA,CXO,25867,-151,2025-11-29T09:28:09.054336+00:00,2025-11-30T03:08:09.054336+00:00,1060.0,52.7584,123.0489,0.8164697,310.7158,0.2585,0.37803381,-28633.719732395086,-83562.58362451589,91184.71939217504,0.3859206822678633,-1.0475191147485021,0.31577026452231577,-28627.800661603535,-83556.30781344588,91179.7205550461,0.3852652116753779,-1.048019229751454,0.31645022973264403,-5.9190707915513485,-6.2758110700087855,4.998837128950981,0.0006554705924853854,0.0005001150029517731,-0.0006799652103282594,9.970435109042134,True,1 25867U 99040B   25333.39454924  .00000722  00000+0  00000+0 0  9995,2 25867  52.7584 123.0489 8164697 310.7158   0.2585  0.37803381 16565
CHANDRA,CXO,25867,-151,2025-11-29T09:28:09.054336+00:00,2025-11-30T03:13:09.054336+00:00,1065.0,52.7584,123.0489,0.8164697,310.7158,0.2585,0.37803381,-28517.74418389531,-83876.18946605902,91278.7679794791,0.38758473958625067,-1.0426386308017768,0.3104508946130683,-28511.971318399366,-83869.98134881677,91273.85689208412,0.3869275174949429,-1.0431390114596095,0.31112951376338555,-5.772865495942824,-6.208117242247681,4.911087394983042,0.000657222091307752,0.0005003806578327552,-0.0006786191503172501,9.797217723869439,True,1 25867U 99040B   25333.39454924  .00000722  00000+0  00000+0 0  9995,2 25867  52.7584 123.0489 8164697 310.7158   0.2585  0.37803381 16565
CHANDRA,CXO,25867,-151,2025-11-29T09:28:09.054336+00:00,2025-11-30T03:18:09.054336+00:00,1070.0,52.7584,123.0489,0.8164697,310.7158,0.2585,0.37803381,-28401.272028923966,-84188.3321644794,91371.22365342305,0.3892323819718062,-1.0377683874178982,0.3051570319933331,-28395.645778836046,-84182.19228280653,91366.40082588427,0.38857340591528194,-1.0382690361558313,0.30583430798858485,-5.626250087920198,-6.139881672876072,4.8228275387809845,0.000658976056524263,0.0005006487379330959,-0.0006772759952517471,9.623538978856258,True,1 25867U 99040B   25333.39454924  .00000722  00000+0  00000+0 0  9995,2 25867  52.7584 123.0489 8164697 310.7158   0.2585  0.37803381 16565
CHANDRA,CXO,25867,-151,2025-11-29T09:28:09.054336+00:00,2025-11-30T03:23:09.054336+00:00,1075.0,52.7584,123.0489,0.8164697,310.7158,0.2585,0.37803381,-28284.308164599403,-84499.01477595449,91462.0940235558,0.39086380129639553,-1.032908259441104,0.2998883747310536,-28278.828911328455,-84492.94374482795,91457.35998655592,0.3902030692202139,-1.0334091775595118,0.3005643091694299,-5.479253270947083,-6.071031126542948,4.734036999871023,0.0006607320761816138,0.0005009181184076894,-0.0006759344383762689,9.449377845275608,True,1 25867U 99040B   25333.39454924  .00000722  00000+0  00000+0 0  9995,2 25867  52.7584 123.0489 8164697 310.7158   0.2585  0.37803381 16565
